{
  "norad_id": 67992,
  "name": "STARLINK-36950",
  "history": [
    {
      "epoch": "2026-04-13T00:37:50.096928Z",
      "apogee_km": 484.1885017185923,
      "perigee_km": 481.80219988698354,
      "latitude_deg": -2.595430707386206e-05,
      "longitude_deg": 4.4438687605343175,
      "height_km": 482.80795365869693,
      "semi_major_axis_km": 6861.132350802787,
      "eccentricity": 0.0001739,
      "inclination_deg": 42.9971,
      "raan_deg": 215.1256,
      "arg_perigee_deg": 268.2731,
      "mean_anomaly_deg": 91.7921,
      "mean_motion_rev_day": 15.27597949
    },
    {
      "epoch": "2026-04-14T14:17:35.855232Z",
      "apogee_km": 483.7831906607089,
      "perigee_km": 482.3327340456681,
      "latitude_deg": 2.767354922500986e-05,
      "longitude_deg": 149.0915152593508,
      "height_km": 482.80724686840585,
      "semi_major_axis_km": 6861.194962353188,
      "eccentricity": 0.0001057,
      "inclination_deg": 43.0028,
      "raan_deg": 206.2606,
      "arg_perigee_deg": 272.1682,
      "mean_anomaly_deg": 87.9049,
      "mean_motion_rev_day": 15.27577039
    },
    {
      "epoch": "2026-04-15T13:49:56.317728Z",
      "apogee_km": 483.838778272112,
      "perigee_km": 482.17838104183375,
      "latitude_deg": 5.8912732307657e-05,
      "longitude_deg": 149.50227684521866,
      "height_km": 482.7430501703051,
      "semi_major_axis_km": 6861.145579656973,
      "eccentricity": 0.000121,
      "inclination_deg": 43.0016,
      "raan_deg": 200.7233,
      "arg_perigee_deg": 272.9169,
      "mean_anomaly_deg": 87.1545,
      "mean_motion_rev_day": 15.27593531
    },
    {
      "epoch": "2026-04-16T13:22:18.566112Z",
      "apogee_km": 484.15808170971013,
      "perigee_km": 482.109306280483,
      "latitude_deg": 3.0946838102666855e-05,
      "longitude_deg": 149.9029138601476,
      "height_km": 483.1016082966607,
      "semi_major_axis_km": 6861.270693995097,
      "eccentricity": 0.0001493,
      "inclination_deg": 43.0005,
      "raan_deg": 195.1834,
      "arg_perigee_deg": 259.2468,
      "mean_anomaly_deg": 100.8216,
      "mean_motion_rev_day": 15.27551748
    },
    {
      "epoch": "2026-04-17T22:19:36.362208Z",
      "apogee_km": 484.11212307790265,
      "perigee_km": 481.8926817040174,
      "latitude_deg": -4.7633865603424126e-05,
      "longitude_deg": 6.469870141802587,
      "height_km": 483.04448551892733,
      "semi_major_axis_km": 6861.13940239096,
      "eccentricity": 0.00016174,
      "inclination_deg": 43.0008,
      "raan_deg": 187.428,
      "arg_perigee_deg": 256.1744,
      "mean_anomaly_deg": 103.8927,
      "mean_motion_rev_day": 15.27595594
    },
    {
      "epoch": "2026-04-18T12:26:59.905824Z",
      "apogee_km": 483.98643077311317,
      "perigee_km": 481.8435870096964,
      "latitude_deg": 7.195103911076584e-06,
      "longitude_deg": 150.71941080538477,
      "height_km": 482.8931226419182,
      "semi_major_axis_km": 6861.0520088914045,
      "eccentricity": 0.00015616,
      "inclination_deg": 43.0002,
      "raan_deg": 184.1056,
      "arg_perigee_deg": 259.1701,
      "mean_anomaly_deg": 100.8975,
      "mean_motion_rev_day": 15.27624781
    },
    {
      "epoch": "2026-04-19T11:59:19.079232Z",
      "apogee_km": 483.95138710055744,
      "perigee_km": 481.89320653269897,
      "latitude_deg": 3.9701868182620675e-05,
      "longitude_deg": 151.13355725395138,
      "height_km": 482.79011832751894,
      "semi_major_axis_km": 6861.059296816628,
      "eccentricity": 0.00014999,
      "inclination_deg": 42.9996,
      "raan_deg": 178.5663,
      "arg_perigee_deg": 264.9208,
      "mean_anomaly_deg": 95.1473,
      "mean_motion_rev_day": 15.27622347
    }
  ]
}